GLOBALSTAR M080         
1 38041U 11080B   26201.91731319 -.00000096  00000+0  43088-4 0  9993
2 38041  52.0059 276.3288 0000297  69.7557 102.2410 12.62257617673142
GLOBALSTAR M082         
1 38042U 11080C   26201.34335230 -.00000098  00000+0  32461-4 0  9998
2 38042  52.0052 233.5791 0000191  59.3982 313.2431 12.62264361673781
GLOBALSTAR M092         
1 38043U 11080D   26202.26706939 -.00000086  00000+0  99913-4 0  9991
2 38043  52.0106 321.1655 0000726 112.4751 259.1482 12.62267942672358
GLOBALSTAR M090         
1 38044U 11080E   26202.08724979 -.00000096  00000+0  44744-4 0  9999
2 38044  52.0095 225.2810 0000389  81.6298 311.9227 12.62269640673993
GLOBALSTAR M086         
1 38045U 11080F   26201.50359285 -.00000105  00000+0 -71233-5 0  9996
2 38045  51.9871 226.9319 0001419 119.1904  44.9170 12.62287860673862
GLOBALSTAR M097         
1 39072U 13005A   26202.13282926 -.00000117  00000+0 -71786-4 0  9998
2 39072  52.0040 140.0015 0000549  45.3552 314.7359 12.62271304621196
GLOBALSTAR M093         
1 39073U 13005B   26202.18527251 -.00000088  00000+0  87812-4 0  9990
2 39073  52.0099 133.2020 0000786  52.8070 307.2868 12.62266403621154
GLOBALSTAR M094         
1 39074U 13005C   26202.26431760 -.00000104  00000+0 -27502-5 0  9990
2 39074  51.9970  47.0444 0001040  73.2447 286.8533 12.62264280622773
GLOBALSTAR M096         
1 39075U 13005D   26201.96110393 -.00000088  00000+0  86627-4 0  9995
2 39075  52.0076  96.7960 0000838  52.9453 307.1491 12.62265888621653
GLOBALSTAR M078         
1 39076U 13005E   26202.09261970 -.00000100  00000+0  19134-4 0  9993
2 39076  51.9848 180.3587 0000970 354.3095   5.7760 12.62260097620298
GLOBALSTAR M095         
1 39077U 13005F   26202.11928651 -.00000094  00000+0  51809-4 0  9990
2 39077  52.0055 177.9288 0000593  23.2482 336.8412 12.62264122620154
GLOBALSTAR M087         
1 52888U 22064A   26202.29074019 -.00000086  00000+0  97118-4 0  9993
2 52888  52.0016 318.6272 0000889  92.1323 267.9645 12.62269480195443
